[{"OBJECT_NAME":"NUSTAR","OBJECT_ID":"2012-031A","EPOCH":"2026-03-10T00:00:02.999808","MEAN_MOTION":15.07728841,"ECCENTRICITY":0.00071224,"INCLINATION":6.0266,"RA_OF_ASC_NODE":57.5732,"ARG_OF_PERICENTER":70.6924,"MEAN_ANOMALY":331.0724,"EPHEMERIS_TYPE":0,"CLASSIFICATION_TYPE":"U","NORAD_CAT_ID":38358,"ELEMENT_SET_NO":999,"REV_AT_EPOCH":130,"BSTAR":0.0011080621,"MEAN_MOTION_DOT":0.00018332,"MEAN_MOTION_DDOT":0},{"OBJECT_NAME":"STARLINK-3910","OBJECT_ID":"2022-051BC","EPOCH":"2026-03-09T12:49:30.281664","MEAN_MOTION":15.08841511,"ECCENTRICITY":0.00011961,"INCLINATION":53.2169,"RA_OF_ASC_NODE":119.8187,"ARG_OF_PERICENTER":94.3692,"MEAN_ANOMALY":265.7437,"EPHEMERIS_TYPE":0,"CLASSIFICATION_TYPE":"U","NORAD_CAT_ID":52586,"ELEMENT_SET_NO":999,"REV_AT_EPOCH":21156,"BSTAR":9.4620466e-5,"MEAN_MOTION_DOT":1.218e-5,"MEAN_MOTION_DDOT":0}]
